#dP2023 10  6  0  0  0.00000000      96 __u+U IGS14 FIT  IAC
## 2282 432000.00000000   900.00000000 60223 0.0000000000000
+  120   C06C07C08C09C10C11C12C13C14C16C19C20C21C22C23C24C25
+        C26C27C28C29C30C32C33C34C35C36C37C38C39C40C41C42C43
+        C44C45C46E02E03E04E05E07E08E09E10E11E12E13E14E15E18
+        E19E21E24E25E26E27E30E31E33E34E36G01G02G03G04G05G06
+        G07G08G09G10G11G12G13G14G15G16G17G18G19G20G21G22G23
+        G24G25G26G27G28G29G30G31G32J02J03J04R01R02R03R04R05
+        R07R08R09R11R12R13R14R15R16R17R18R19R20R21R22R24R25
+        R26  0  0  0  0  0  0  0  0  0  0  0  0  0  0  0  0
++         7  7  8  7  7  7  7  7  7  7  6  6  5  6  6  6  6
++         6  6  6  6  6  6  6  6  6  6  6  7  7  6  6  6  6
++         6  6  6  4  5  4  5  4  4  5  4  4  4  4  4  4  5
++         4  4  5  5  4  4  4  5  4  4  4  4  4  3  3  3  4
++         4  4  3  4  3  4  3  4  4  4  4  4  4  3  4  4  4
++         4  4  4  4  4  3  4  4  4  9  9  9  7  7  7  7  7
++         7  7  7  6  7  8  7  7  7  7  7  8  8  7  7  7  8
++         9  0  0  0  0  0  0  0  0  0  0  0  0  0  0  0  0
%c M  cc GPS ccc cccc cccc cccc cccc ccccc ccccc ccccc ccccc
%c cc cc ccc ccc cccc cccc cccc cccc ccccc ccccc ccccc ccccc
%f  1.2500000  1.025000000  0.00000000000  0.000000000000000
%f  0.0000000  0.000000000  0.00000000000  0.000000000000000
%i    0    0    0    0      0      0      0      0         0
%i    0    0    0    0      0      0      0      0         0
/* INFORMATION & ANALYSIS CENTER (IAC)            FINAL DATA
/* S/V CLOCKS ARE ALIGNED TO GNSS TIME                      
/* G:C1WC2W R:C1PC2P E:C1XC5X C:C2IC6I J:C1CC2S             
/* PCV:IGS20_2280 OL/AL:FES2004  NONE     YN ORB:CoN CLK:CoN
*  2023 10 06 23 15  0.00000000
PC06 -13868.607892  25530.634861 -30643.860645     44.626882
PC07 -11104.888701  40277.934135  -4685.716466   -118.036540
PC08    762.280093  26664.092796  32708.270892    309.853907
PC09  -7379.825854  24970.348464 -32850.155874     74.385421
PC10  -4600.496297  41540.873311   2752.812750   -202.780840
PC11  25883.070911  -9591.358936   4280.346009    190.240413
PC12  19569.948995   4528.336213  19422.953744    908.053476
PC13   6327.389184  30335.717419  28873.156016    363.534972
PC14  15135.099274  -8610.794692 -21813.687886    539.232511
PC16 -20588.243875  24224.621378 -27605.523170   -113.731776
PC19 -12180.558679  18344.701846  17145.318934   -971.223927
PC20 -15654.946372   -644.769309  23092.720112    224.793324
PC21   9921.951972  20919.131285 -15561.189689   -969.819945
PC22  -1506.983125  27838.328896    933.632824   -277.102557
PC23  -1093.547259 -18434.576925  20925.899774   -851.392327
PC24  25219.132122   8203.066636   8722.676084    467.725934
PC25  16152.675269  -8221.602602  21215.777499    227.201246
PC26  19749.346287  18125.689092  -7838.036553   -188.038915
PC27 -12593.329264 -11006.993035 -22355.185893    209.741504
PC28   5389.586896 -18630.115707 -20061.084193    157.698712
PC29 -22064.157453  16441.073857   4631.721161    184.290063
PC30 -24370.254460   3348.181308 -13195.204140     -6.063426
PC32 -10036.894535 -20954.749307  15467.447791   -529.061463
PC33  12123.754579 -18346.043937 -17194.438545   -958.093751
PC34  24783.996561  -4468.886497  11999.311584    275.454811
PC35  -4671.968048  18887.324644  20008.171765    530.882740
PC36 -16981.311661   7199.713534 -20913.924361   -191.724096
PC37 -18749.071836 -18799.693871   8559.048333   -846.145297
PC38  -7879.285382  23111.758696  34429.161652    109.489527
PC39 -24381.897432  24694.481288 -24081.575191     -5.110143
PC40 -17118.659496  37594.663296  -7688.079316    -39.160522
PC41   1847.941926 -27797.751547  -1628.487653   -874.137300
PC42  15610.865103   2338.337772 -22977.941783   -528.307206
PC43  22527.379842 -16018.328919  -3783.086908     42.874555
PC44  12865.611853  10780.922989  22279.650152    253.768140
PC45   1747.391532  18547.855406 -20783.047446    -33.368647
PC46 -25039.005039  -7302.845030  -9865.515844    -89.855465
PE02 -17711.860479    659.382587 -23702.658040     68.287710
PE03 -21794.723246  11897.649387  16094.378366    -62.648685
PE04  15888.591005 -24937.960638   1355.879862   -228.452249
PE05 -15045.474693  -8039.755699  24186.024526     25.055553
PE07   -887.995168  23552.662410 -17904.866988    -80.192221
PE08 -16149.600368  24785.053570   -885.731677   -157.461225
PE09   1093.994102 -23573.713883  17869.826283   -182.230858
PE10   4204.039517 -15643.943784 -24779.981315   -569.205142
PE11  -8236.360407 -15909.309887 -23571.924697   3051.482605
PE12  14768.633216 -13144.447718 -22028.871432   -726.270115
PE13   7439.152805  15901.052288  23837.263758    -19.727221
PE14  21978.585501 -19932.635423   5802.928522    361.246746
PE15 -15205.432877  12931.320057  21861.633888    -59.100241
PE18 -21314.690397   8327.149220 -13343.575419    614.860309
PE19  21588.123790  -9475.876062 -17896.569779  -1479.373662
PE21  18958.739340  18354.253642  13417.983492   -556.883023
PE24  -8723.025560 -27696.793333   5675.509056   -361.480744
PE25 -18864.380027 -18661.047367 -13102.756400     -2.864614
PE26  25803.365479   9266.847529  11179.098990    243.737043
PE27   9227.218350  27653.013733  -5155.642737   -168.103005
PE30  -6234.057290  20269.286549 -20660.798139   -558.888194
PE31   5847.653750 -20546.881296  20499.068091     -6.922284
PE33  28809.945922  -2034.224659  -6520.061700      0.102502
PE34 -28614.237658   2483.710370   7114.476348    -70.976975
PE36 -25397.159335  -9528.240525 -11841.232145   -126.323686
PG01 -13759.266629 -13741.371780 -18589.071602    164.083030
PG02  -7174.498830 -14312.608992 -20724.262863   -545.219515
PG03 -12438.064497 -23422.697303   2144.350525    -94.197928
PG04  -6312.054738 -15450.677818  20638.979625    177.069817
PG05   3492.241195  23595.475165  11400.659278   -145.511524
PG06 -22271.397643   6433.527712  13115.648345    536.092806
PG07 -25511.008799  -6393.714072   5708.932742     47.388892
PG08   1552.207876 -21672.394726 -15071.586952   -145.806804
PG09 -14093.446755  -6248.703582  21545.368659    -39.691353
PG10  14983.277789  -2224.740652 -21668.497404    -56.298000
PG11 -10944.167163  12809.436458  20535.693942   -403.197950
PG12   9106.802000  24991.507797   -632.302788   -432.981904
PG13 -11513.201204  21905.394235  -9545.734136    581.039534
PG14 -16727.408793  -1410.337483 -20595.205048    206.451094
PG15   2241.326601  21499.468072 -15767.435987     84.579276
PG16   3308.713386 -21282.516795  14923.407991   -443.183229
PG17 -20016.259944   9308.819169 -14416.962736    723.865236
PG18  26022.269141   4902.488511   3096.423222   -440.724034
PG19 -20294.355768  14978.063385  -7937.007951    381.429151
PG20  -4905.680366  17417.150672  19544.037379    408.149807
PG21  -4133.852909 -14798.522318 -21231.987969    147.359822
PG22 -13569.671188   6400.397712 -21469.484941    107.831695
PG23  17895.680346  10794.340656 -16489.800798     78.813885
PG24   9469.119236  14966.623996 -20288.370947   -339.279566
PG25  16868.510794  17554.241375  10613.482299    471.454978
PG26   9768.984755 -13591.053077  20429.051501    224.678209
PG27  12003.323280 -23011.221530  -4727.598296    -51.126527
PG28  23293.754804  -6423.579467  11006.419691    -21.031675
PG29  13352.679557   7065.332627  21809.395666   -609.900434
PG30 -26263.110722    935.250059  -4611.953300   -481.068770
PG31  16594.292872 -10779.730939  17718.551849   -224.328825
PG32  19346.043342 -13413.412957 -11912.332525   -568.958341
PJ02 -20034.167727  24946.181027 -22884.605198     -5.225074
PJ03 -30769.029425  25685.036613  18158.243821     -4.423593
PJ04 -28036.303757  28297.540867  19783.827232     71.003910
PR01  -7406.593056 -13362.402511  20422.781278     67.152068
PR02 -11809.561525   5727.889132  21923.088255    -22.391398
PR03  -9654.445510  21188.911149  10529.896042     86.591062
PR04  -2482.864725  24577.968437  -6377.771873    205.776659
PR05   6085.896823  14821.757408 -19854.465063    120.197520
PR07   9363.275532 -21618.321965  -9677.109062     66.276030
PR08   2117.165513 -24522.860197   6672.786668    -72.844854
PR09  18622.033678   5043.345290  16662.061229    146.228071
PR11  -7412.385457 -17375.773084  17162.022445   -187.461928
PR12 -19137.087248 -16848.578913   -410.453331     32.070571
PR13 -19236.731315  -7143.321959 -15161.309606    -39.947725
PR14  -7091.555170   8589.085564 -22932.627761     25.373624
PR15   8354.654631  17896.386814 -16117.402345     85.587731
PR16  19164.134423  16806.720370    167.599072     19.391086
PR17 -18810.788315  11863.796279  12458.561313     23.480695
PR18  -3689.724409  11657.044511  22411.139980    105.569570
PR19  11959.815855   6675.789114  21525.044302   -249.953077
PR20  24510.901896  -3917.158714   5821.419768   -101.311215
PR21  18362.813158 -11846.538087 -13184.969347    -43.578140
PR22   2848.569909 -11724.655627 -22444.338849     87.485242
PR24 -24451.686038   5063.597121  -5124.775568    -27.216203
PR25  19341.508166 -11185.637195 -12324.993601     29.359194
PR26   2249.615765 -24670.990473   6133.604245    -21.520036
EOF
